SL-16 R/B               
1 24298U 96051B   26176.81298389  .00000118  00000+0  90524-4 0  9999
2 24298  70.7650 306.3931 0016206 324.3969  35.6069 14.12448848536915
ORBVIEW 2 (SEASTAR)     
1 24883U 97037A   26176.45357049  .00000241  00000+0  99952-4 0  9994
2 24883  98.8694 343.7019 0003318  99.8755 260.2804 14.35557231523936
SL-16 R/B               
1 25400U 98043G   26176.85257927  .00000033  00000+0  32941-4 0  9990
2 25400  98.8367 131.0865 0010867  63.8391 296.3904 14.26069930454400
SL-16 R/B               
1 25407U 98045B   26176.78244176  .00000196  00000+0  12315-3 0  9995
2 25407  71.0120 314.2524 0008991 230.4733 129.5596 14.16203221442404
ISS (ZARYA)             
1 25544U 98067A   26176.70356236  .00009385  00000+0  17567-3 0  9997
2 25544  51.6325 257.9368 0004376 231.2480 128.8118 15.49425151573072
CZ-4B R/B               
1 25732U 99025C   26176.68366574  .00000050  00000+0  44617-4 0  9991
2 25732  98.6480 218.3083 0037740  35.7441  73.0905 14.18284767403476
OKEAN-O                 
1 25860U 99039A   26176.72835730  .00000564  00000+0  80493-4 0  9990
2 25860  97.9313 235.4282 0001380  70.2659 289.8702 14.80476743450371
SL-16 R/B               
1 25861U 99039B   26176.67466782  .00000479  00000+0  67328-4 0  9999
2 25861  97.9834 235.5135 0013374 266.5872  93.3810 14.81852830452850
DELTA 2 R/B             
1 25876U 99041E   26176.52761297  .00000830  00000+0  17155-3 0  9994
2 25876  51.7634 230.4786 0500950 306.6703  48.9164 14.12028352378266
HELIOS 1B               
1 25977U 99064A   26176.71868853  .00001334  00000+0  15168-3 0  9990
2 25977  98.1609  82.1051 0002521  79.8105 280.3395 14.88027682701321
TERRA                   
1 25994U 99068A   26176.85054602  .00000347  00000+0  79594-4 0  9994
2 25994  97.9452 226.0532 0002263 164.1961 250.6888 14.61109283410870
SL-16 R/B               
1 26070U 00006B   26176.61393101  .00000307  00000+0  18021-3 0  9991
2 26070  71.0014 230.9069 0016060   9.8610 350.2825 14.15837695363833
TITAN 4B R/B            
1 26474U 00047B   26176.86875486  .00002996  00000+0  18660-3 0  9997
2 26474  67.9891  96.1359 0045935 278.2343  81.3598 15.10242751409244
ENVISAT                 
1 27386U 02009A   26176.86352602  .00000071  00000+0  36794-4 0  9991
2 27386  98.3837 127.9886 0001413  87.6710 295.5526 14.39066657274739
IDEFIX & ARIANE 42P R/B 
1 27422U 02021B   26176.79928953  .00000175  00000+0  82860-4 0  9996
2 27422  98.5942 114.1891 0010791 225.7728 134.2569 14.31085656259489
AQUA                    
1 27424U 02022A   26176.88013772  .00000718  00000+0  15259-3 0  9993
2 27424  98.4280 146.3368 0000799  64.2987 347.4731 14.62170125284545
CZ-4B R/B               
1 27432U 02024C   26176.73827619  .00000019  00000+0  32413-4 0  9997
2 27432  98.8696 229.5028 0051196  76.4616  35.7261 14.14565489244513
MIDORI II (ADEOS-II)    
1 27597U 02056A   26176.81824953  .00000227  00000+0  10693-3 0  9997
2 27597  98.7881 136.1515 0002109  66.0880 294.0522 14.29353895225748
H-2A R/B                
1 27601U 02056E   26176.86738836  .00000183  00000+0  78840-4 0  9992
2 27601  98.3315 133.2256 0069643 198.3875 186.7133 14.33825544229616
CZ-4B R/B               
1 28059U 03049C   26176.62040641  .00000281  00000+0  76023-4 0  9997
2 28059  98.6898 175.8027 0046886 262.1905  97.3967 14.55105184202291
CZ-2C R/B               
1 28222U 04012C   26176.77486473  .00115730  00000+0  60000-3 0  9996
2 28222  97.7081 253.4468 0010436 251.2037 108.8098 15.80626362221251
SL-16 R/B               
1 28353U 04021B   26176.85887470  .00000074  00000+0  63114-4 0  9996
2 28353  71.0005   5.4893 0006899 243.5535 116.4880 14.14607186138136
CZ-4B R/B               
1 28415U 04035C   26176.69642271  .00009240  00000+0  30956-3 0  9991
2 28415  97.3366 209.6740 0029104 306.3213  53.5341 15.30738379196427
CZ-2C R/B               
1 28480U 04046B   26176.74579566  .00000074  00000+0  42881-4 0  9994
2 28480  98.1939  84.9916 0138956 194.8268 164.8821 14.27028268123916
ARIANE 5 R/B            
1 28499U 04049H   26176.48284448  .00000538  00000+0  65750-4 0  9995
2 28499  98.2726 349.0562 0083889   2.6617 357.5026 14.85458241161799
CZ-2D R/B               
1 28738U 05024B   26176.56899250  .00069507  00000+0  56612-3 0  9994
2 28738  97.3479 196.4203 0001707  31.9489 328.1876 15.70440091156652
ALOS (DAICHI)           
1 28931U 06002A   26176.87095359  .00000973  00000+0  17024-3 0  9994
2 28931  98.1327 132.4114 0001137  59.2586 300.8732 14.70065996 89375
H-2A R/B                
1 28932U 06002B   26176.68911627  .00008516  00000+0  40742-3 0  9993
2 28932  98.2568 333.2883 0049772 232.7200 126.9488 15.18165427110818
RESURS-DK 1             
1 29228U 06021A   26176.82700711  .00002326  00000+0  13656-3 0  9996
2 29228  69.9337 317.1885 0006753 287.8162  72.2267 15.13250041103888
CZ-4B R/B               
1 29507U 06046C   26176.69142508  .00004460  00000+0  22118-3 0  9996
2 29507  97.5452 221.2720 0031029 251.6567 108.1291 15.17840162 76426
CZ-2C R/B               
1 31114U 07010B   26176.79552645  .00000056  00000+0  44786-4 0  9996
2 31114  98.4105 284.7256 0058497 341.0458  18.8542 14.20277897995065
