OBJECT_NAME,OBJECT_ID,EPOCH,MEAN_MOTION,ECCENTRICITY,INCLINATION,RA_OF_ASC_NODE,ARG_OF_PERICENTER,MEAN_ANOMALY,EPHEMERIS_TYPE,CLASSIFICATION_TYPE,NORAD_CAT_ID,ELEMENT_SET_NO,REV_AT_EPOCH,BSTAR,MEAN_MOTION_DOT,MEAN_MOTION_DDOT
SL-16 R/B,1996-051B,2026-06-25T19:30:41.808096,14.12448848,.0016206,70.7650,306.3931,324.3969,35.6069,0,U,24298,999,53691,.90524E-4,.118E-5,0
ORBVIEW 2 (SEASTAR),1997-037A,2026-06-25T10:53:08.490336,14.35557231,.0003318,98.8694,343.7019,99.8755,260.2804,0,U,24883,999,52393,.99952E-4,.241E-5,0
SL-16 R/B,1998-043G,2026-06-25T20:27:42.848928,14.26069930,.0010867,98.8367,131.0865,63.8391,296.3904,0,U,25400,999,45440,.32941E-4,.33E-6,0
SL-16 R/B,1998-045B,2026-06-25T18:46:42.968064,14.16203221,.0008991,71.0120,314.2524,230.4733,129.5596,0,U,25407,999,44240,.12315E-3,.196E-5,0
ISS (ZARYA),1998-067A,2026-06-25T16:53:07.787904,15.49425151,.0004376,51.6325,257.9368,231.2480,128.8118,0,U,25544,999,57307,.17567E-3,.9385E-4,0
CZ-4B R/B,1999-025C,2026-06-25T16:24:28.719936,14.18284767,.003774,98.6480,218.3083,35.7441,73.0905,0,U,25732,999,40347,.44617E-4,.5E-6,0
OKEAN-O,1999-039A,2026-06-25T17:28:50.070720,14.80476743,.000138,97.9313,235.4282,70.2659,289.8702,0,U,25860,999,45037,.80493E-4,.564E-5,0
SL-16 R/B,1999-039B,2026-06-25T16:11:31.299648,14.81852830,.0013374,97.9834,235.5135,266.5872,93.3810,0,U,25861,999,45285,.67328E-4,.479E-5,0
DELTA 2 R/B,1999-041E,2026-06-25T12:39:45.760608,14.12028352,.050095,51.7634,230.4786,306.6703,48.9164,0,U,25876,999,37826,.17155E-3,.83E-5,0
HELIOS 1B,1999-064A,2026-06-25T17:14:54.688992,14.88027682,.0002521,98.1609,82.1051,79.8105,280.3395,0,U,25977,999,70132,.15168E-3,.1334E-4,0
TERRA,1999-068A,2026-06-25T20:24:47.176128,14.61109283,.0002263,97.9452,226.0532,164.1961,250.6888,0,U,25994,999,41087,.79594E-4,.347E-5,0
SL-16 R/B,2000-006B,2026-06-25T14:44:03.639264,14.15837695,.001606,71.0014,230.9069,9.8610,350.2825,0,U,26070,999,36383,.18021E-3,.307E-5,0
TITAN 4B R/B,2000-047B,2026-06-25T20:51:00.419904,15.10242751,.0045935,67.9891,96.1359,278.2343,81.3598,0,U,26474,999,40924,.1866E-3,.2996E-4,0
ENVISAT,2002-009A,2026-06-25T20:43:28.648128,14.39066657,.0001413,98.3837,127.9886,87.6710,295.5526,0,U,27386,999,27473,.36794E-4,.71E-6,0
IDEFIX & ARIANE 42P R/B,2002-021B,2026-06-25T19:10:58.615392,14.31085656,.0010791,98.5942,114.1891,225.7728,134.2569,0,U,27422,999,25948,.8286E-4,.175E-5,0
AQUA,2002-022A,2026-06-25T21:07:23.899008,14.62170125,.0000799,98.4280,146.3368,64.2987,347.4731,0,U,27424,999,28454,.15259E-3,.718E-5,0
CZ-4B R/B,2002-024C,2026-06-25T17:43:07.062816,14.14565489,.0051196,98.8696,229.5028,76.4616,35.7261,0,U,27432,999,24451,.32413E-4,.19E-6,0
MIDORI II (ADEOS-II),2002-056A,2026-06-25T19:38:16.759392,14.29353895,.0002109,98.7881,136.1515,66.0880,294.0522,0,U,27597,999,22574,.10693E-3,.227E-5,0
H-2A R/B,2002-056E,2026-06-25T20:49:02.354304,14.33825544,.0069643,98.3315,133.2256,198.3875,186.7133,0,U,27601,999,22961,.7884E-4,.183E-5,0
CZ-4B R/B,2003-049C,2026-06-25T14:53:23.113824,14.55105184,.0046886,98.6898,175.8027,262.1905,97.3967,0,U,28059,999,20229,.76023E-4,.281E-5,0
CZ-2C R/B,2004-012C,2026-06-25T18:35:48.312672,15.80626362,.0010436,97.7081,253.4468,251.2037,108.8098,0,U,28222,999,22125,.6E-3,.11573E-2,0
SL-16 R/B,2004-021B,2026-06-25T20:36:46.774080,14.14607186,.0006899,71.0005,5.4893,243.5535,116.4880,0,U,28353,999,13813,.63114E-4,.74E-6,0
CZ-4B R/B,2004-035C,2026-06-25T16:42:50.922144,15.30738379,.0029104,97.3366,209.6740,306.3213,53.5341,0,U,28415,999,19642,.30956E-3,.924E-4,0
CZ-2C R/B,2004-046B,2026-06-25T17:53:56.745024,14.27028268,.0138956,98.1939,84.9916,194.8268,164.8821,0,U,28480,999,12391,.42881E-4,.74E-6,0
ARIANE 5 R/B,2004-049H,2026-06-25T11:35:17.763072,14.85458241,.0083889,98.2726,349.0562,2.6617,357.5026,0,U,28499,999,16179,.6575E-4,.538E-5,0
CZ-2D R/B,2005-024B,2026-06-25T13:39:20.952000,15.70440091,.0001707,97.3479,196.4203,31.9489,328.1876,0,U,28738,999,15665,.56612E-3,.69507E-3,0
ALOS (DAICHI),2006-002A,2026-06-25T20:54:10.390176,14.70065996,.0001137,98.1327,132.4114,59.2586,300.8732,0,U,28931,999,8937,.17024E-3,.973E-5,0
H-2A R/B,2006-002B,2026-06-25T16:32:19.645728,15.18165427,.0049772,98.2568,333.2883,232.7200,126.9488,0,U,28932,999,11081,.40742E-3,.8516E-4,0
RESURS-DK 1,2006-021A,2026-06-25T19:50:53.414304,15.13250041,.0006753,69.9337,317.1885,287.8162,72.2267,0,U,29228,999,10388,.13656E-3,.2326E-4,0
CZ-4B R/B,2006-046C,2026-06-25T16:35:39.126912,15.17840162,.0031029,97.5452,221.2720,251.6567,108.1291,0,U,29507,999,7642,.22118E-3,.446E-4,0
CZ-2C R/B,2007-010B,2026-06-25T19:05:33.485280,14.20277897,.0058497,98.4105,284.7256,341.0458,18.8542,0,U,31114,999,99506,.44786E-4,.56E-6,0
